BEIDOU-3 M26            
1 58655U 23207B   26172.92939486 -.00000088  00000+0  00000+0 0  9996
2 58655  55.7591  62.1294 0002913 321.4735  38.5423  1.86229788 16910
GSAT0225 (GALILEO 29)   
1 59598U 24079A   26173.39901709 -.00000027  00000+0  00000+0 0  9993
2 59598  55.1229 100.9341 0001549 300.5895 243.7028  1.70474059 13400
GSAT0227 (GALILEO 30)   
1 59600U 24079C   26170.34920996 -.00000013  00000+0  00000+0 0  9993
2 59600  55.1161 101.0181 0002201  52.0058 307.9926  1.70473950 13408
GSAT0232 (GALILEO 32)   
1 61182U 24167A   26172.38887110  .00000029  00000+0  00000+0 0  9991
2 61182  55.1837 221.1983 0006220 228.6673 158.7060  1.70474305 10952
GSAT0226 (GALILEO 31)   
1 61183U 24167B   26172.32163679  .00000029  00000+0  00000+0 0  9993
2 61183  55.1825 221.2072 0003001 231.0582 206.3880  1.70474325 10920
BEIDOU-3 M25            
1 61186U 24168B   26173.32043008 -.00000105  00000+0  00000+0 0  9997
2 61186  54.4683 302.0635 0003048 300.1284  79.4262  1.86230185 11888
BEIDOU-3 M27            
1 61187U 24168C   26173.62710637 -.00000106  00000+0  00000+0 0  9991
2 61187  54.4632 302.0357 0001493  49.9604 310.2339  1.86230268  9363
NAVSTAR 83 (USA 440)    
1 62339U 24242A   26173.07548361 -.00000100  00000+0  00000+0 0  9990
2 62339  54.8465 333.9823 0017575   4.4653 174.2883  2.00571761 11357
QZS-6 (MICHIBIKI-6)     
1 62876U 25023A   26173.86608802 -.00000229  00000+0  00000+0 0  9990
2 62876   0.0672  75.5392 0002035  19.3191 218.4647  1.00269680  5000
COSMOS 2584 [GLONASS-K2]
1 63130U 25042A   26170.95584270 -.00000037  00000+0  00000+0 0  9991
2 63130  65.0856  72.7078 0005135 219.8892 140.1108  2.13103910 10106
NAVSTAR 84 (USA 545)    
1 64202U 25116A   26173.81774213 -.00000100  00000+0  00000+0 0  9991
2 64202  55.2389  30.9030 0008331 339.0573 198.5850  2.00575624  7989
COSMOS 2596 [GLONASS-K1]
1 65590U 25206B   26173.62071910 -.00000077  00000+0  00000+0 0  9998
2 65590  64.6312 314.7956 0010987 310.7969  49.9010  2.13100866  6033
GSAT0233 (GALILEO 33)   
1 67160U 25302A   26170.57978300 -.00000013  00000+0  00000+0 0  9990
2 67160  54.3370 102.0625 0000767 220.2514 324.6772  1.70473973  3168
GSAT0234 (GALILEO 34)   
1 67162U 25302C   26171.44712830 -.00000015  00000+0  00000+0 0  9995
2 67162  54.3393 102.0369 0002889 311.1148 226.2302  1.70474042  3232
NAVSTAR 85 (USA 581)    
1 67588U 26017A   26173.18291057 -.00000045  00000+0  00000+0 0  9990
2 67588  55.0914  88.5546 0021963 258.8274 100.9301  2.00571109431718
NAVSTAR 86 (USA 585)    
1 68791U 26087A   26173.65141046  .00000058  00000+0  00000+0 0  9991
2 68791  54.9627 207.5713 0020681 106.6591  76.9843  2.00570839   940
