OBJECT_NAME,OBJECT_ID,EPOCH,MEAN_MOTION,ECCENTRICITY,INCLINATION,RA_OF_ASC_NODE,ARG_OF_PERICENTER,MEAN_ANOMALY,EPHEMERIS_TYPE,CLASSIFICATION_TYPE,NORAD_CAT_ID,ELEMENT_SET_NO,REV_AT_EPOCH,BSTAR,MEAN_MOTION_DOT,MEAN_MOTION_DDOT
BEIDOU-3 M26 (C48),2023-207B,2026-06-21T22:18:19.715904,1.86229788,.0002913,55.7591,62.1294,321.4735,38.5423,0,U,58655,999,1691,0,-.88E-6,0
GSAT0225 (GALILEO 29),2024-079A,2026-06-22T09:34:35.076576,1.70474059,.00015496,55.1229,100.9341,300.5895,243.7028,0,U,59598,999,1340,0,-.27E-6,0
GSAT0227 (GALILEO 30),2024-079C,2026-06-19T08:22:51.740544,1.70473950,.00022017,55.1161,101.0181,52.0058,307.9926,0,U,59600,999,1340,0,-.13E-6,0
GSAT0232 (GALILEO 32),2024-167A,2026-06-21T09:19:58.463040,1.70474305,.00062203,55.1837,221.1983,228.6673,158.7060,0,U,61182,999,1095,0,.29E-6,0
GSAT0226 (GALILEO 31),2024-167B,2026-06-21T07:43:09.418656,1.70474325,.0003001,55.1825,221.2072,231.0582,206.3880,0,U,61183,999,1092,0,.29E-6,0
BEIDOU-3 M25 (C47),2024-168B,2026-06-22T07:41:25.158912,1.86230185,.0003048,54.4683,302.0635,300.1284,79.4262,0,U,61186,999,1188,0,-.105E-5,0
BEIDOU-3 M27 (C49),2024-168C,2026-06-22T15:03:01.990368,1.86230268,.00014931,54.4632,302.0357,49.9604,310.2339,0,U,61187,999,936,0,-.106E-5,0
GPS BIII-7  (PRN 01),2024-242A,2026-06-22T01:48:41.783904,2.00571761,.00175752,54.8465,333.9823,4.4653,174.2883,0,U,62339,999,1135,0,-.1E-5,0
QZS-6 (QZSS/PRN 200),2025-023A,2026-06-22T20:47:10.004928,1.00269680,.00020357,0.0672,75.5392,19.3191,218.4647,0,U,62876,999,500,0,-.229E-5,0
COSMOS 2584 (704K),2025-042A,2026-06-19T22:56:24.809280,2.13103910,.00051351,65.0856,72.7078,219.8892,140.1108,0,U,63130,999,1010,0,-.37E-6,0
GPS BIII-8  (PRN 21),2025-116A,2026-06-22T19:37:32.920032,2.00575624,.00083315,55.2389,30.9030,339.0573,198.5850,0,U,64202,999,798,0,-.1E-5,0
COSMOS 2596 (708K),2025-206B,2026-06-22T14:53:50.130240,2.13100866,.00109874,64.6312,314.7956,310.7969,49.9010,0,U,65590,999,603,0,-.77E-6,0
GSAT0233 (GALILEO 33),2025-302A,2026-06-19T13:54:53.251200,1.70473973,.00007672,54.3370,102.0625,220.2514,324.6772,0,U,67160,999,316,0,-.13E-6,0
GSAT0234 (GALILEO 34),2025-302C,2026-06-20T10:43:51.885120,1.70474042,.00028893,54.3393,102.0369,311.1148,226.2302,0,U,67162,999,323,0,-.15E-6,0
GPS BIII-9  (PRN 20),2026-017A,2026-06-22T04:23:23.473248,2.00571109,.00219633,55.0914,88.5546,258.8274,100.9301,0,U,67588,999,43171,0,-.45E-6,0
GPS BIII-10 (PRN 13),2026-087A,2026-06-22T15:38:01.863744,2.00570839,.00206819,54.9627,207.5713,106.6591,76.9843,0,U,68791,999,94,0,.58E-6,0
